satname,norad_id,inclination_deg,eccentricity,mean_motion_rev_per_day,perigee_km,apogee_km,l1,l2
STARLINK-1316,45415,53.1562,0.0002831,15.40562762,442.51582818179213,446.37877541347007,1 45415U 20019BH  26177.84362455  .00056062  00000+0  13584-2 0  9992,2 45415  53.1562 338.3180 0002831 143.9215 216.1982 15.40562762346761
STARLINK-1286,45417,53.0453,0.0003626,15.66221917,367.2800534695525,372.1736043182673,1 45417U 20019BK  26177.76693240  .00057944  00000+0  55280-3 0  9994,2 45417  53.0453 321.4562 0003626 315.0639  45.0082 15.66221917347227
STARLINK-1308,45419,53.046,0.0005712,15.67626829,361.8425122697399,369.54666547686884,1 45419U 20019BM  26177.83841862  .00053709  00000+0  48457-3 0  9992,2 45419  53.0460 340.2949 0005712  96.5939 263.5727 15.67626829346715
STARLINK-1329,45531,53.0397,0.0002409,15.75859215,340.5683701799362,343.8062224258956,1 45531U 20025A   26177.48113595  .00072010  00000+0  45729-3 0  9995,2 45531  53.0397 264.6900 0002409 320.7652  39.3192 15.75859215342525
STARLINK-1338,45532,53.0433,0.0002014,15.73079932,348.7454476272187,351.45558169812466,1 45532U 20025B   26178.00003472 -.00039284  00000+0 -27813-3 0  9999,2 45532  53.0433 269.3932 0002014  53.8747 274.5700 15.73079932  5943
STARLINK-1350,45535,53.0705,0.0001362,15.38855038,448.5639604160933,450.4238070688243,1 45535U 20025E   26177.87193388  .00041318  00000+0  10635-2 0  9994,2 45535  53.0705 239.3493 0001362  46.0952 314.0164 15.38855038342953
STARLINK-1362,45538,53.1565,0.000311,15.38971048,447.0274747399153,451.27404772740283,1 45538U 20025H   26177.77367172 -.00035532  00000+0 -90135-3 0  9997,2 45538  53.1565 311.2174 0003110 271.8122  88.2526 15.38971048341925
STARLINK-1368,45540,53.1569,0.0002247,15.39191453,446.9650435048852,450.03293371816744,1 45540U 20025K   26177.78550353  .00059120  00000+0  14973-2 0  9998,2 45540  53.1569 311.5110 0002247 251.1132 108.9629 15.39191453341915
STARLINK-1371,45542,53.0425,0.0001656,15.70324935,356.85211718255596,359.08311503141067,1 45542U 20025M   26178.00003472 -.00052282  00000+0 -41841-3 0  9990,2 45542  53.0425 279.6799 0001656  52.2247 138.6362 15.70324935  5766
STARLINK-1372,45543,53.1551,7.77e-05,15.39629231,446.674541616002,447.73519974270584,1 45543U 20025N   26177.80317381  .00039601  00000+0  99456-3 0  9998,2 45543  53.1551 310.8615 0000777 244.7916 115.3009 15.39629231341021
STARLINK-1373,45544,53.044,0.0002191,15.71972194,351.7861323355728,354.73583093112484,1 45544U 20025P   26177.69557509  .00059433  00000+0  44750-3 0  9996,2 45544  53.0440 276.0253 0002191  44.5079 315.6114 15.71972194342384
STARLINK-1327,45555,53.0398,0.0001887,15.73677614,347.1275222970744,349.66611616045157,1 45555U 20025AA  26178.00003472 -.00030485  00000+0 -20914-3 0  9993,2 45555  53.0398 251.8416 0001887  55.9612 263.9303 15.73677614  5887
STARLINK-1356,45564,53.0419,0.0003301,15.6682,365.78263040709226,370.23643634842756,1 45564U 20025AK  26177.94612327  .00049321  00000+0  46064-3 0  9991,2 45564  53.0419 265.7823 0003301   4.6815 355.4230 15.66820000342540
STARLINK-1357,45565,53.0417,0.0001803,15.71644767,352.9820288189212,355.40970805127927,1 45565U 20025AL  26177.41426634  .00061703  00000+0  47075-3 0  9999,2 45565  53.0417 224.5083 0001803 159.1671 200.9420 15.71644767343086
STARLINK-1361,45567,53.0407,0.0001901,15.70320078,356.7009698195561,359.26204207551746,1 45567U 20025AN  26178.00003472 -.00021362  00000+0 -16751-3 0  9994,2 45567  53.0407 263.7962 0001901  59.9418 276.9239 15.70320078  5916
STARLINK-1376,45570,53.1556,0.0001027,15.40103771,445.10195429939904,446.50359152875626,1 45570U 20025AR  26177.58051025  .00049313  00000+0  12154-2 0  9993,2 45570  53.1556 288.2588 0001027 233.8010 126.2900 15.40103771342228
STARLINK-1320,45572,53.0364,0.0008319,15.93145909,287.935503117581,299.0357488426871,1 45572U 20025AT  26177.92079265  .00226064  30517-4  63357-3 0  9992,2 45572  53.0364 158.3001 0008319  41.8063 318.3597 15.93145909344066
STARLINK-1321,45573,53.0408,0.0001632,15.70803859,355.4992524800582,357.69747010198444,1 45573U 20025AU  26178.00003472  .00005569  00000+0  48603-4 0  9992,2 45573  53.0408 247.6159 0001632  66.7122 254.0250 15.70803859  5757
STARLINK-1331,45578,53.0451,0.000144,15.70551804,356.3489999804997,358.2888112813216,1 45578U 20025AZ  26178.00003472 -.00007504  00000+0 -55095-4 0  9993,2 45578  53.0451 254.5551 0001440  67.9251 107.2315 15.70551804  5814
STARLINK-1333,45580,53.1556,0.0001931,15.36965438,453.76933002930764,456.4083218432834,1 45580U 20025BB  26177.73041837  .00050188  00000+0  13696-2 0  9995,2 45580  53.1556 289.4753 0001931 306.8415  53.2411 15.36965438342227
STARLINK-1335,45581,53.1528,0.0001626,15.3870662,448.8226780129153,451.0431663516083,1 45581U 20025BC  26177.67434009  .00067140  00000+0  17245-2 0  9996,2 45581  53.1528 286.2275 0001626 231.7525 128.3334 15.38706620342259
STARLINK-1337,45582,53.0419,0.0001756,15.77390557,336.65784136336424,339.0164914906127,1 45582U 20025BD  26177.90547100  .00085195  00000+0  50426-3 0  9999,2 45582  53.0419 243.0490 0001756  84.4915 275.6305 15.77390557342859
STARLINK-1347,45586,53.0354,0.0001246,15.70612512,356.30612714612926,357.98455950608513,1 45586U 20025BH  26177.52621656  .00053108  00000+0  42417-3 0  9990,2 45586  53.0354 216.2744 0001246  26.1917 333.9162 15.70612512343192
STARLINK-1364,45589,53.0405,0.0003377,15.71426817,352.54463169767223,357.0920697415477,1 45589U 20025BL  26177.58830102  .00053136  00000+0  41011-3 0  9997,2 45589  53.0405 252.5682 0003377   2.0257 358.0773 15.71426817342695
STARLINK-1365,45590,53.0439,9.25e-05,15.67021466,366.8073382890534,368.0552684251752,1 45590U 20025BM  26178.00003472 -.00064180  00000+0 -59082-3 0  9999,2 45590  53.0439 285.7804 0000925  53.5014 324.1778 15.67021466  5697
STARLINK-1443,45660,53.1332,0.0001229,15.34115609,462.7077976024375,464.3894839329387,1 45660U 20035D   26177.56497602  .00048719  00000+0  14567-2 0  9996,2 45660  53.1332 279.2904 0001229  42.4909 317.6188 15.34115609335421
STARLINK-1446,45663,53.0196,0.0001988,15.48743619,419.04880278347355,421.7519012346329,1 45663U 20035G   26177.76710393  .00028421  00000+0  52745-3 0  9995,2 45663  53.0196 199.0941 0001988 328.9520  31.1370 15.48743619336542
STARLINK-1448,45665,53.0411,0.0001979,15.74803173,343.86078715974145,346.5218805142749,1 45665U 20035J   26178.00003472  .00006901  00000+0  50069-4 0  9995,2 45665  53.0411 237.8263 0001979  65.5288 340.8028 15.74803173  5989
STARLINK-1451,45668,53.0501,4.59e-05,15.15088708,520.3926062353075,521.0259203222768,1 45668U 20035M   26177.50218025  .00020537  00000+0  10973-2 0  9993,2 45668  53.0501 292.8229 0000459 263.9387  96.1554 15.15088708335212
STARLINK-1452,45669,53.0217,0.0007585,15.62266963,375.9835014621676,386.23727975372003,1 45669U 20035N   26177.80661301  .00089293  00000+0  98769-3 0  9990,2 45669  53.0217 215.2814 0007585  12.4488 347.6711 15.62266963336327
STARLINK-1453,45670,53.0362,0.0001527,15.75166424,343.13114989025416,345.1841386746173,1 45670U 20035P   26178.00003472  .00039062  00000+0  25859-3 0  9993,2 45670  53.0362 198.0460 0001527  88.9222 169.1144 15.75166424  5931
STARLINK-1454,45671,53.0414,0.0001335,15.73316927,348.5267007036009,350.3229597122672,1 45671U 20035Q   26178.00003472  .00040614  00000+0  29089-3 0  9998,2 45671  53.0414 239.2837 0001335  66.5448 199.2204 15.73316927  5973
STARLINK-1456,45673,53.0401,0.0001257,15.70106575,357.7453365886158,359.4389502952772,1 45673U 20035S   26178.00003472  .00004226  00000+0  39100-4 0  9995,2 45673  53.0401 234.1067 0001257  58.2081 270.0790 15.70106575  5874
STARLINK-1458,45675,53.0438,0.0004185,15.60505826,383.364075324499,389.0258211651799,1 45675U 20035U   26177.49473147  .00100954  00000+0  11937-2 0  9990,2 45675  53.0438 252.3871 0004185   5.7738 354.3322 15.60505826335740
STARLINK-1460,45676,53.1556,0.0002878,15.3679049,453.64066006102894,457.57416334440404,1 45676U 20035V   26177.70824263  .00044510  00000+0  12236-2 0  9992,2 45676  53.1556 276.7924 0002878 299.7372  60.3345 15.36790490335439
STARLINK-1392,45677,53.1522,0.0003646,15.40248102,442.88861566807464,447.8643216894352,1 45677U 20035W   26177.68469333  .00044531  00000+0  10938-2 0  9993,2 45677  53.1522 275.0749 0003646 315.6316  44.4396 15.40248102335498
STARLINK-1394,45679,53.038,0.0001238,15.68785371,361.53950891998556,363.2084594396674,1 45679U 20035Y   26177.44226997  .00050197  00000+0  43278-3 0  9995,2 45679  53.0380 227.2195 0001238  65.6276 294.4869 15.68785371336124
STARLINK-1402,45685,53.0381,0.0004614,15.60503105,383.0817450216182,389.32387779958754,1 45685U 20035AE  26177.41226035  .00041664  00000+0  49989-3 0  9996,2 45685  53.0381 219.2269 0004614 307.4969  52.5623 15.60503105336241
STARLINK-1404,45686,53.1557,0.0003804,15.4641233,424.642616518885,429.82014078136217,1 45686U 20035AF  26177.47158922  .00025519  00000+0  51439-3 0  9996,2 45686  53.1557 256.8868 0003804 306.6866  53.3792 15.46412330335739
STARLINK-1413,45689,53.1564,0.0003687,15.36760327,453.17719712375583,458.2164661912202,1 45689U 20035AJ  26177.94282407  .00046149  00000+0  12691-2 0  9995,2 45689  53.1564 260.3429 0003687 324.8349  35.2411 15.36760327335648
STARLINK-1417,45693,53.0513,0.0002524,15.17669762,511.1459809686394,514.6245690130545,1 45693U 20035AN  26177.56892072  .00023994  00000+0  11883-2 0  9998,2 45693  53.0513 278.8350 0002524 215.1285 144.9543 15.17669762335401
STARLINK-1420,45695,53.0425,0.0001692,15.72604147,350.3188661468712,352.59616093025306,1 45695U 20035AQ  26178.00003472  .00028932  00000+0  21518-3 0  9992,2 45695  53.0425 207.2073 0001692  90.0647 323.1313 15.72604147  5834
STARLINK-1422,45696,53.1556,0.0001454,15.38481325,449.6066087247327,451.59240530097213,1 45696U 20035AR  26177.61642220  .00023809  00000+0  62614-3 0  9999,2 45696  53.1556 261.7764 0001454  80.6969 279.4199 15.38481325335677
